{"fetched_at":"2026-03-30T06:02:59Z","count":15439,"tles":[{"name":"YAOGAN-35 04B","line1":"1 53524U 22100C   26087.67264409  .00018638  00000+0  55579-3 0  9994","line2":"2 53524  35.0008 182.6644 0003966 259.5542 100.4729 15.33757663 92857","category":"Other"}]}