{
  "norad_id": 53524,
  "name": "YAOGAN-35 04B",
  "history": [
    {
      "epoch": "2026-03-28T16:08:36.449376",
      "apogee_km": 467.3275179271568,
      "perigee_km": 461.8986168786805,
      "latitude_deg": 4.299456714115187,
      "longitude_deg": -43.02616735990159,
      "semi_major_axis_km": 6842.750067402918,
      "eccentricity": 0.00039669,
      "inclination_deg": 35.0008,
      "raan_deg": 182.6644,
      "arg_perigee_deg": 259.5542,
      "mean_anomaly_deg": 100.4729,
      "mean_motion_rev_day": 15.33757663
    }
  ]
}